{"type":"FeatureCollection","features":[{"type":"Feature","id":"way/19912993","properties":{"amenity":"library","building":"yes","building:levels":8,"learning":"university","name":"McLennan Library Building","name:fr":"Pavillon McLennan de la Bibliothèque","wheelchair":"yes"},"geometry":{"type":"Polygon","coordinates":[[[-73.5763929,45.5031236],[-73.5759371,45.502901],[-73.5758936,45.5029447],[-73.5758294,45.5029134],[-73.5754181,45.5033269],[-73.5754712,45.5033528],[-73.5754163,45.5034081],[-73.5758626,45.5036262],[-73.5759015,45.5035872],[-73.5759821,45.5036266],[-73.5762201,45.5033876],[-73.576387,45.5032233],[-73.5763237,45.5031918],[-73.5763929,45.5031236]]]}},{"type":"Feature","id":"way/19912994","properties":{"amenity":"university","building":"yes","learning":"university","name":"Leacock Building","name:fr":"Pavillon Leacock"},"geometry":{"type":"Polygon","coordinates":[[[-73.5779099,45.5041837],[-73.5778558,45.504239],[-73.5778402,45.5042365],[-73.5777901,45.5042809],[-73.5777963,45.5042962],[-73.5777742,45.5043206],[-73.57775,45.5043471],[-73.5780869,45.5045194],[-73.5781248,45.5045388],[-73.578184,45.5044854],[-73.5782003,45.5045505],[-73.5781059,45.5046457],[-73.5779208,45.5048253],[-73.5783358,45.5050336],[-73.5783347,45.5049302],[-73.5783251,45.5047026],[-73.5782252,45.5046511],[-73.5782935,45.5045891],[-73.5782497,45.5044277],[-73.5782909,45.5043799],[-73.5779099,45.5041837]]]}},{"type":"Feature","id":"way/19913315","properties":{"addr:housenumber":3655,"addr:postcode":"H3G 1Y6","addr:street":"Promenade Sir-William-Osler","amenity":"university","building":"yes","learning":"university","name":"McIntyre Medical Building","name:fr":"Pavillon McIntyre (sciences médicales)"},"geometry":{"type":"Polygon","coordinates":[[[-73.5827364,45.5029049],[-73.5826842,45.5028693],[-73.5825869,45.5028337],[-73.5825038,45.502829],[-73.5824066,45.5028456],[-73.5823235,45.5028717],[-73.5821518,45.502686],[-73.5820112,45.5027681],[-73.5819321,45.5028913],[-73.5822072,45.502969],[-73.5821693,45.5030378],[-73.5821622,45.5030971],[-73.5822001,45.503173],[-73.5822713,45.5032347],[-73.5823668,45.5032797],[-73.582454,45.503294],[-73.5825774,45.5032893],[-73.5826604,45.5032679],[-73.5827459,45.5032252],[-73.5827981,45.5031659],[-73.5828218,45.503109],[-73.5828265,45.5030259],[-73.5827909,45.5029547],[-73.5827364,45.5029049]]]}},{"type":"Feature","id":"way/19913855","properties":{"amenity":"university","building":"yes","learning":"university","name":"Stewart Biology Building","name:fr":"Pavillon Stewart (sciences biologiques)"},"geometry":{"type":"Polygon","coordinates":[[[-73.5812188,45.5023723],[-73.5813329,45.5024291],[-73.5816182,45.5025714],[-73.5815302,45.5026773],[-73.5814824,45.5026512],[-73.5810974,45.5030644],[-73.5813668,45.5032325],[-73.5817437,45.5027952],[-73.5816532,45.5027503],[-73.581773,45.5026234],[-73.581819,45.5026541],[-73.581972,45.5024946],[-73.581378,45.5022026],[-73.5812188,45.5023723]]]}},{"type":"Feature","id":"way/19913856","properties":{"amenity":"university","building":"yes","learning":"university","name":"Stewart Biology Building","name:fr":"Pavillon Stewart (sciences biologiques)"},"geometry":{"type":"Polygon","coordinates":[[[-73.5809706,45.5023801],[-73.5806825,45.5026699],[-73.5809698,45.5028179],[-73.5812554,45.502527],[-73.5812414,45.5025198],[-73.5811736,45.5024848],[-73.5809706,45.5023801]]]}},{"type":"Feature","id":"way/19913932","properties":{"addr:housenumber":1085,"addr:postcode":"H3A 1A7","addr:street":"Docteur Penfield","building":"yes","learning":"university","name":"Linguistics"},"geometry":{"type":"Polygon","coordinates":[[[-73.5791406,45.5037069],[-73.5792881,45.5038002],[-73.5793521,45.5037342],[-73.57957,45.5035096],[-73.5794963,45.5034749],[-73.5791406,45.5037069]]]}},{"type":"Feature","id":"way/20168777","properties":{"addr:city":"Montréal","addr:housenumber":805,"addr:postcode":"H3A 0B9","addr:street":"Rue Sherbrooke Ouest","amenity":"university","building":"yes","building:levels":10,"description":"Department of Atmospheric & Oceanic Sciences","learning":"university","name":"Burnside Hall","name:fr":"Pavillon Burnside"},"geometry":{"type":"Polygon","coordinates":[[[-73.5749132,45.5045052],[-73.5748402,45.5045794],[-73.5746575,45.5047652],[-73.5749801,45.504921],[-73.5751624,45.5047356],[-73.5752358,45.5046611],[-73.5749132,45.5045052]]]}},{"type":"Feature","id":"way/20168778","properties":{"addr:city":"Montréal","addr:housenumber":801,"addr:postcode":"H3A 0B8","addr:province":"QC","addr:street":"Rue Sherbrooke Ouest","amenity":"university","building":"yes","learning":"university","name":"Maass Chemistry Building","name:fr":"Pavillon Maass (chimie)"},"geometry":{"type":"Polygon","coordinates":[[[-73.574393,45.5044365],[-73.574258,45.5045937],[-73.5742019,45.5045669],[-73.5739977,45.5048097],[-73.5740608,45.5048368],[-73.5738781,45.5050424],[-73.5743436,45.5052515],[-73.5745047,45.5050644],[-73.5741813,45.5049133],[-73.574369,45.5047303],[-73.5744143,45.5046819],[-73.5744849,45.5047177],[-73.5746427,45.5045556],[-73.574393,45.5044365]]]}},{"type":"Feature","id":"way/20168780","properties":{"addr:city":"Montréal","addr:housenumber":3420,"addr:postcode":"H3A 2A7","addr:province":"QC","addr:street":"Rue University","building":"yes","learning":"university","name":"Pulp & Paper Research Centre","name:fr":"Centre de recherche sur les pâtes et papiers"},"geometry":{"type":"Polygon","coordinates":[[[-73.5743971,45.5052862],[-73.5748944,45.5055188],[-73.5751538,45.5052434],[-73.5747256,45.505029],[-73.5746717,45.5050777],[-73.5746129,45.5050564],[-73.5743971,45.5052862]]]}},{"type":"Feature","id":"way/20168781","properties":{"addr:city":"Montréal","addr:housenumber":809,"addr:postcode":"H3A 0C1","addr:province":"QC","addr:street":"Rue Sherbrooke Ouest","amenity":"library","building":"yes","internet_access":"wlan","learning":"university","name":"Macdonald Stewart Library","name:fr":"Pavillon Macdonald-Stewart de la Bibliothèque"},"geometry":{"type":"Polygon","coordinates":[[[-73.5753522,45.5048652],[-73.5750692,45.5051567],[-73.5752695,45.505259],[-73.5753964,45.5051344],[-73.5754291,45.5051493],[-73.5755439,45.505038],[-73.5755833,45.5050312],[-73.5756039,45.5050115],[-73.5756098,45.5049842],[-73.5755928,45.5049663],[-73.575563,45.504955],[-73.5755258,45.5049525],[-73.5753522,45.5048652]]]}},{"type":"Feature","id":"way/20168782","properties":{"addr:city":"Montréal","addr:housenumber":815,"addr:postcode":"H3A 0C2","addr:province":"QC","addr:street":"Rue Sherbrooke Ouest","amenity":"university","building":"yes","internet_access":"wlan","learning":"university","name":"Macdonald-Harrington Building","name:fr":"Pavillon Macdonald-Harrington"},"geometry":{"type":"Polygon","coordinates":[[[-73.5758087,45.5050735],[-73.5756241,45.5052441],[-73.5755914,45.5052757],[-73.5756302,45.5053052],[-73.5755131,45.5054019],[-73.5758406,45.5055723],[-73.5760163,45.505382],[-73.5759187,45.5053355],[-73.5760439,45.5052005],[-73.5758087,45.5050735]]]}},{"type":"Feature","id":"way/20168784","properties":{"addr:city":"Montréal","addr:housenumber":817,"addr:postcode":"H3A 0C3","addr:province":"QC","addr:street":"Rue Sherbrooke Ouest","amenity":"university","building":"yes","internet_access":"wlan","learning":"university","name":"Macdonald Engineering Building","name:fr":"Pavillon Macdonald (génie)"},"geometry":{"type":"Polygon","coordinates":[[[-73.5758874,45.5055823],[-73.576131,45.5057018],[-73.5765129,45.5058891],[-73.5767907,45.5056128],[-73.576757,45.5055951],[-73.5769039,45.5054577],[-73.5767857,45.5053956],[-73.5766216,45.5053095],[-73.5763378,45.5051606],[-73.5760471,45.5054327],[-73.5758874,45.5055823]]]}},{"type":"Feature","id":"way/20168831","properties":{"building":"yes","learning":"university","name":"Redpath Museum","name:fr":"Musée Redpath","tourism":"museum"},"geometry":{"type":"Polygon","coordinates":[[[-73.5772054,45.5044493],[-73.5776029,45.504623],[-73.5777007,45.5046144],[-73.5777869,45.504553],[-73.5777566,45.5044651],[-73.577369,45.5042942],[-73.577282,45.5043766],[-73.5772054,45.5044493]]]}},{"type":"Feature","id":"way/20168923","properties":{"amenity":"library","building":"yes","learning":"university","name":"Redpath Library Building","name:fr":"Pavillon Redpath de la Bibliothèque","wheelchair":"yes"},"geometry":{"type":"Polygon","coordinates":[[[-73.57622,45.5035199],[-73.5766821,45.5037368],[-73.5767216,45.5036951],[-73.5770691,45.5038609],[-73.5772941,45.503624],[-73.5764869,45.5032499],[-73.5763083,45.5034306],[-73.57622,45.5035199]]]}},{"type":"Feature","id":"way/20168924","properties":{"building":"yes","learning":"university","name":"Redpath Hall","name:fr":"Salle Redpath"},"geometry":{"type":"Polygon","coordinates":[[[-73.5770221,45.5038962],[-73.5772082,45.5039843],[-73.5773242,45.5038577],[-73.5773891,45.503891],[-73.5775425,45.5037306],[-73.5775381,45.5037026],[-73.5774913,45.5036798],[-73.5774465,45.5036939],[-73.5772953,45.5036232],[-73.5770666,45.5038653],[-73.5770492,45.5038622],[-73.5770221,45.5038962]]]}},{"type":"Feature","id":"way/20168954","properties":{"amenity":"university","building":"yes","learning":"university","name":"Morrice Hall","name:fr":"Pavillon Morrice"},"geometry":{"type":"Polygon","coordinates":[[[-73.5776701,45.5041928],[-73.5777501,45.5041152],[-73.5777148,45.504094],[-73.5779345,45.5038914],[-73.5777768,45.5038241],[-73.5775396,45.5040602],[-73.5775375,45.5040256],[-73.5774792,45.5039948],[-73.5774147,45.5039993],[-73.5773697,45.5040402],[-73.5773833,45.5040864],[-73.5774409,45.5041181],[-73.5775031,45.5041075],[-73.5775393,45.504126],[-73.5776701,45.5041928]]]}},{"type":"Feature","id":"way/20169169","properties":{"building":"yes","building:levels":6,"learning":"university","name":"Bronfman Building","name:fr":"Pavillon Bronfman"},"geometry":{"type":"Polygon","coordinates":[[[-73.5763942,45.5028552],[-73.5765434,45.5027069],[-73.5766521,45.5025989],[-73.5768459,45.5024063],[-73.5766286,45.5022989],[-73.5764701,45.5022205],[-73.5763003,45.5023927],[-73.5760183,45.5026693],[-73.5761621,45.5027404],[-73.5763942,45.5028552]]]}},{"type":"Feature","id":"way/21340756","properties":{"amenity":"university","building":"yes","learning":"university","name":"Arts Building","name:fr":"Pavillon des Arts"},"geometry":{"type":"Polygon","coordinates":[[[-73.5778975,45.5048304],[-73.5777842,45.5049369],[-73.5778288,45.5049575],[-73.5776538,45.5051222],[-73.5776194,45.5050982],[-73.5773997,45.5053007],[-73.5774478,45.5053248],[-73.5773173,45.5054518],[-73.5772693,45.5054278],[-73.5771491,45.5055616],[-73.5774135,45.5057093],[-73.5775439,45.5055788],[-73.5774958,45.5055548],[-73.5776915,45.5053728],[-73.5778254,45.5054449],[-73.5779559,45.505311],[-73.5778323,45.5052424],[-73.5780108,45.5050707],[-73.5782099,45.5051806],[-73.5783232,45.5050639],[-73.5778975,45.5048304]]]}},{"type":"Feature","id":"way/21340757","properties":{"amenity":"university","building":"yes","learning":"university","name":"Ferrier Building","name:fr":"Pavillon Ferrier"},"geometry":{"type":"Polygon","coordinates":[[[-73.5775164,45.5057814],[-73.5777499,45.5058912],[-73.578265,45.5059399],[-73.5783571,45.5054406],[-73.5780588,45.5053866],[-73.5779765,45.5053385],[-73.5775164,45.5057814]]]}},{"type":"Feature","id":"way/21340760","properties":{"amenity":"university","building":"yes","learning":"university","name":"Wong Building","name:fr":"Pavillon Wong"},"geometry":{"type":"Polygon","coordinates":[[[-73.5792672,45.5066773],[-73.5784708,45.5062997],[-73.5783197,45.5064714],[-73.5785017,45.5065606],[-73.578409,45.5066602],[-73.578996,45.5069348],[-73.5792672,45.5066773]]]}},{"type":"Feature","id":"way/21341171","properties":{"building":"yes","created_by":"JOSM","learning":"university","name":"Penfield 740"},"geometry":{"type":"Polygon","coordinates":[[[-73.5798039,45.5069675],[-73.5793265,45.5067197],[-73.5791078,45.5069238],[-73.5796107,45.5071607],[-73.5798039,45.5069675]]]}},{"type":"Feature","id":"way/21341172","properties":{"addr:city":"Montréal","addr:housenumber":3640,"addr:postcode":"H3A 0C7","addr:province":"QC","addr:street":"Rue University","amenity":"university","building":"yes","learning":"university","name":"Strathcona Anatomy & Dentistry Building","name:fr":"Pavillon Strathcona (anatomie et médecine dentaire)"},"geometry":{"type":"Polygon","coordinates":[[[-73.5799517,45.5070555],[-73.5793554,45.5076097],[-73.5799238,45.50791],[-73.5800251,45.5078159],[-73.5796618,45.5076239],[-73.5797969,45.5074984],[-73.5800781,45.507647],[-73.5802168,45.5075181],[-73.5799274,45.5073651],[-73.5800354,45.5072648],[-73.5802103,45.5073572],[-73.5803235,45.5072519],[-73.5799517,45.5070555]]]}},{"type":"Feature","id":"way/21341557","properties":{"addr:city":"Montréal","addr:housenumber":3630,"addr:postcode":"H3A 0C6","addr:province":"QC","addr:street":"Rue University","amenity":"university","building":"yes","learning":"university","name":"Trottier Building","name:fr":"Pavillon Trottier"},"geometry":{"type":"Polygon","coordinates":[[[-73.5789122,45.5071197],[-73.5786993,45.5073325],[-73.5792052,45.5075942],[-73.5794321,45.5073744],[-73.5789122,45.5071197]]]}},{"type":"Feature","id":"way/21341559","properties":{"addr:city":"Montréal","addr:housenumber":3600,"addr:postcode":"H3A 2T8","addr:province":"QC","addr:street":"Rue University","amenity":"university","building":"yes","learning":"university","name":"Rutherford Physics Building","name:fr":"Pavillon Rutherford (physique)"},"geometry":{"type":"Polygon","coordinates":[[[-73.5782252,45.5067807],[-73.5781363,45.5068692],[-73.5780265,45.5069787],[-73.5783517,45.5071395],[-73.5785148,45.507218],[-73.578597,45.5072575],[-73.5786739,45.5072934],[-73.5788717,45.507092],[-73.5782252,45.5067807]]]}},{"type":"Feature","id":"way/21341787","properties":{"addr:city":"Montréal","addr:housenumber":3520,"addr:postcode":"H3A 2A7","addr:province":"QC","addr:street":"Rue University","amenity":"university","building":"yes","learning":"university","name":"Birks Building","name:fr":"Pavillon Birks"},"geometry":{"type":"Polygon","coordinates":[[[-73.5776371,45.5065165],[-73.5773688,45.5063858],[-73.5773176,45.5064373],[-73.5771299,45.5066266],[-73.5773981,45.5067573],[-73.5776371,45.5065165]]]}},{"type":"Feature","id":"way/21341788","properties":{"addr:city":"Montréal","addr:housenumber":3506,"addr:postcode":"H3A 2A7","addr:province":"QC","addr:street":"Rue University","amenity":"university","building":"yes","learning":"university","name":"Wilson Hall","name:fr":"Pavillon Wilson"},"geometry":{"type":"Polygon","coordinates":[[[-73.5772041,45.5063048],[-73.5768561,45.5061392],[-73.5766189,45.5063715],[-73.576973,45.5065352],[-73.5772041,45.5063048]]]}},{"type":"Feature","id":"way/21342090","properties":{"amenity":"university","building":"yes","learning":"university","name":"Peterson Hall","name:fr":"Pavillon Peterson"},"geometry":{"type":"Polygon","coordinates":[[[-73.5777283,45.5030916],[-73.5776133,45.5032049],[-73.577632,45.5032134],[-73.5775123,45.5033323],[-73.5774933,45.5033253],[-73.57744,45.5033767],[-73.5777029,45.5035062],[-73.5777561,45.5034531],[-73.5776724,45.5034108],[-73.5777124,45.5033681],[-73.5777562,45.5033887],[-73.5777915,45.5033563],[-73.5777475,45.5033342],[-73.5777926,45.5032929],[-73.5778533,45.5033201],[-73.5779666,45.5032115],[-73.5777283,45.5030916]]]}},{"type":"Feature","id":"way/21342091","properties":{"amenity":"university","building":"yes","learning":"university","name":"Faculty Club","name:fr":"Faculty Club"},"geometry":{"type":"Polygon","coordinates":[[[-73.5775621,45.5031592],[-73.5773436,45.5030456],[-73.5771798,45.5032004],[-73.5773984,45.503314],[-73.5775621,45.5031592]]]}},{"type":"Feature","id":"way/30176550","properties":{"building":"yes","learning":"university","name":"3550 University Street","name:fr":"3550 rue Université"},"geometry":{"type":"Polygon","coordinates":[[[-73.5779794,45.5068448],[-73.5778429,45.5067898],[-73.5778206,45.5068049],[-73.577738,45.5068869],[-73.5778675,45.5069512],[-73.5779794,45.5068448]]]}},{"type":"Feature","id":"way/30176553","properties":{"building":"yes","created_by":"Potlatch 0.10f","learning":"university","name":"3534 University Street","name:fr":"3534 rue Université"},"geometry":{"type":"Polygon","coordinates":[[[-73.5776414,45.5067007],[-73.5775483,45.5066597],[-73.5774604,45.506751],[-73.5775514,45.5067899],[-73.5776414,45.5067007]]]}},{"type":"Feature","id":"way/30176563","properties":{"amenity":"university","building":"yes","learning":"university","name":"Brown Student Services Building","name:fr":"Pavillon Brown (Services aux étudiants)"},"geometry":{"type":"Polygon","coordinates":[[[-73.578437,45.5035668],[-73.5782319,45.5037661],[-73.5785322,45.5038957],[-73.5786219,45.5038122],[-73.5786646,45.5037409],[-73.5789234,45.5035881],[-73.5788988,45.5035706],[-73.5790944,45.5034552],[-73.5791394,45.5034725],[-73.5792328,45.503372],[-73.5788769,45.5031869],[-73.5787657,45.5032973],[-73.5788847,45.5033559],[-73.5786139,45.5036551],[-73.578437,45.5035668]]]}},{"type":"Feature","id":"way/30176564","properties":{"alt_name":"Shatner Building","amenity":"university","building":"yes","learning":"university","name":"University Centre","name:fr":"Centre universitaire"},"geometry":{"type":"Polygon","coordinates":[[[-73.5782319,45.5037661],[-73.578437,45.5035668],[-73.5785208,45.5034899],[-73.5781207,45.5032942],[-73.5779397,45.5034761],[-73.577846,45.5035818],[-73.5780257,45.5036647],[-73.5782319,45.5037661]]]}},{"type":"Feature","id":"way/30176566","properties":{"amenity":"university","building":"yes","learning":"university","name":"3438 McTavish Street","name:fr":"3438 rue McTavish"},"geometry":{"type":"Polygon","coordinates":[[[-73.5771385,45.5031755],[-73.5772976,45.5030205],[-73.5771982,45.5029703],[-73.5770391,45.5031253],[-73.5771385,45.5031755]]]}},{"type":"Feature","id":"way/30176567","properties":{"amenity":"university","building":"yes","learning":"university","name":"3434 McTavish Street","name:fr":"3434 rue McTavish"},"geometry":{"type":"Polygon","coordinates":[[[-73.5770391,45.5031253],[-73.5771982,45.5029703],[-73.5772597,45.5029094],[-73.5771813,45.50287],[-73.5769606,45.503086],[-73.5770391,45.5031253]]]}},{"type":"Feature","id":"way/30176568","properties":{"amenity":"university","building":"yes","learning":"university","name":"3430 McTavish Street","name:fr":"3430 rue McTavish"},"geometry":{"type":"Polygon","coordinates":[[[-73.5769606,45.503086],[-73.5771813,45.50287],[-73.5770932,45.5028258],[-73.5768721,45.5030417],[-73.5769606,45.503086]]]}},{"type":"Feature","id":"way/30176570","properties":{"building":"yes","building:levels":3,"learning":"university","name":"McGill Bookstore","name:fr":"Librairie","shop":"books"},"geometry":{"type":"Polygon","coordinates":[[[-73.5768721,45.5030417],[-73.5770932,45.5028258],[-73.5767623,45.5026591],[-73.5765409,45.5028753],[-73.5768721,45.5030417]]]}},{"type":"Feature","id":"way/30176620","properties":{"building":"hospital","learning":"university","name":"1033 Pine Avenue West","name:fr":"1033, avenue des Pins Ouest"},"geometry":{"type":"Polygon","coordinates":[[[-73.5829704,45.5055216],[-73.5822949,45.5053852],[-73.5822316,45.5055259],[-73.5829097,45.5056634],[-73.5829704,45.5055216]]]}},{"type":"Feature","id":"way/30176634","properties":{"building":"hospital","name":"Pavillion F"},"geometry":{"type":"Polygon","coordinates":[[[-73.5836271,45.5092134],[-73.5834613,45.5087651],[-73.5832495,45.5088021],[-73.5834043,45.5092067],[-73.5833904,45.5092899],[-73.5832992,45.5094065],[-73.5831371,45.5093499],[-73.583128,45.5093596],[-73.583109,45.5093526],[-73.5830335,45.5093245],[-73.5830331,45.5093111],[-73.5830258,45.5093007],[-73.5830097,45.5092915],[-73.5829928,45.5092923],[-73.5829806,45.5092953],[-73.5829578,45.5093244],[-73.5829436,45.5093288],[-73.5829142,45.5093669],[-73.5829143,45.5093802],[-73.5828882,45.5094137],[-73.5828967,45.5094266],[-73.5829122,45.509432],[-73.582927,45.5094365],[-73.5829439,45.509433],[-73.5829535,45.5094272],[-73.5830459,45.5094631],[-73.5830406,45.5094737],[-73.5831983,45.5095356],[-73.5831737,45.5095671],[-73.5833508,45.5096374],[-73.5836053,45.5093192],[-73.5837646,45.509327],[-73.5837751,45.5092205],[-73.5836271,45.5092134]]]}},{"type":"Feature","id":"way/30176635","properties":{"building":"hospital","name":"Pavillion R"},"geometry":{"type":"Polygon","coordinates":[[[-73.5829705,45.50865],[-73.5830648,45.5087048],[-73.5831306,45.5086334],[-73.5832942,45.508598],[-73.583268,45.5085387],[-73.5833218,45.508527],[-73.583181,45.5082073],[-73.5832289,45.508197],[-73.5831928,45.508115],[-73.5831312,45.5081284],[-73.5829948,45.5078187],[-73.5829373,45.5078311],[-73.5829043,45.5077562],[-73.5828107,45.5077764],[-73.5828442,45.5078525],[-73.5826292,45.507899],[-73.5826939,45.508046],[-73.5828577,45.5080106],[-73.5829253,45.5081639],[-73.5829088,45.5081674],[-73.5829251,45.5082043],[-73.5828463,45.5082214],[-73.5828671,45.5082686],[-73.5829454,45.5082517],[-73.582955,45.5082735],[-73.5829877,45.5082664],[-73.5830598,45.50843],[-73.5828898,45.5084668],[-73.5829226,45.5085413],[-73.5829705,45.50865]]]}},{"type":"Feature","id":"way/46867151","properties":{"attribution":"Natural Resources Canada","building":"hospital","canvec:CODE":2010182,"canvec:UUID":"11CF45291363E5F4E0409C8467120387","source":"CanVec_Import_2009"},"geometry":{"type":"Polygon","coordinates":[[[-73.5821384,45.5056229],[-73.5821126,45.5056912],[-73.5820372,45.5056789],[-73.5819807,45.5058105],[-73.5820054,45.5058184],[-73.5819917,45.5058435],[-73.5819662,45.5058379],[-73.5819161,45.5059793],[-73.5819303,45.5059832],[-73.5819019,45.5060637],[-73.5820847,45.5061056],[-73.5820698,45.5061682],[-73.5821059,45.5061753],[-73.5820897,45.5062111],[-73.5822152,45.5062351],[-73.5822512,45.5061677],[-73.5822191,45.5061613],[-73.5822295,45.5061339],[-73.5823113,45.5061543],[-73.5823466,45.5060645],[-73.5824826,45.5060921],[-73.5825098,45.5060157],[-73.5826,45.5060372],[-73.5825183,45.5062347],[-73.5825408,45.506239],[-73.5825061,45.5063331],[-73.5825768,45.5063596],[-73.5825535,45.5064228],[-73.5829518,45.5065093],[-73.5830342,45.5063019],[-73.5826796,45.506228],[-73.5826847,45.5062067],[-73.5827265,45.506216],[-73.5828501,45.5058954],[-73.5828593,45.505897],[-73.5829077,45.5057588],[-73.5827362,45.5057261],[-73.5826791,45.50588],[-73.5826702,45.5058771],[-73.5826564,45.5059204],[-73.5822603,45.5058401],[-73.5822929,45.5057461],[-73.5823401,45.5057539],[-73.582372,45.5056742],[-73.5823477,45.5056688],[-73.5823585,45.505637],[-73.5822047,45.5056031],[-73.5821918,45.5056346],[-73.5821384,45.5056229]]]}},{"type":"Feature","id":"way/112976640","properties":{"addr:city":"Montréal","addr:housenumber":3450,"addr:postcode":"H3A 0E8","addr:province":"QC","addr:street":"Rue University","building":"yes","learning":"university","name":"Adams Building","name:fr":"Pavillon Adams"},"geometry":{"type":"Polygon","coordinates":[[[-73.5756241,45.5052441],[-73.575548,45.5052064],[-73.5754291,45.5051493],[-73.5753964,45.5051344],[-73.5752695,45.505259],[-73.5753117,45.5052812],[-73.5751413,45.5054494],[-73.5750957,45.505427],[-73.5749671,45.5055589],[-73.575114,45.505631],[-73.575602,45.5058704],[-73.5756643,45.5058019],[-73.5757302,45.5057302],[-73.5753712,45.5055541],[-73.5755131,45.5054019],[-73.5756302,45.5053052],[-73.5755914,45.5052757],[-73.5756241,45.5052441]]]}},{"type":"Feature","id":"way/112977926","properties":{"addr:housename":"McConnell Engineering Building","addr:housenumber":3480,"addr:street":"Rue University","building":"yes","learning":"university","name":"McConnell Engineering Building","name:fr":"McConnell - Génie"},"geometry":{"type":"Polygon","coordinates":[[[-73.575602,45.5058704],[-73.5764262,45.506269],[-73.5766072,45.506093],[-73.5764189,45.5060013],[-73.5764515,45.5059792],[-73.5765338,45.5059014],[-73.5765129,45.5058891],[-73.576131,45.5057018],[-73.575975,45.5058503],[-73.5757302,45.5057302],[-73.5756643,45.5058019],[-73.575602,45.5058704]]]}},{"type":"Feature","id":"way/165265063","properties":{"building":"yes","internet":"mcgill wifi + two free use machiens","internet_access":"wlan","learning":"university","name":"Thomson House","note":"Graduate pub with good beer","prices":"good","tourism":"attraction","wheelchair":"limited"},"geometry":{"type":"Polygon","coordinates":[[[-73.5795204,45.5042877],[-73.5797022,45.5043788],[-73.5798583,45.5042259],[-73.5796766,45.5041347],[-73.5796319,45.5041785],[-73.5795204,45.5042877]]]}},{"type":"Feature","id":"way/178683326","properties":{"building":"hospital","name":"Pavillion E"},"geometry":{"type":"Polygon","coordinates":[[[-73.5808009,45.5083365],[-73.5807881,45.5083489],[-73.5808912,45.5083993],[-73.5809282,45.5083588],[-73.5809538,45.5083725],[-73.5809326,45.5083949],[-73.5809541,45.5084043],[-73.5809234,45.5084309],[-73.58103,45.5084794],[-73.581056,45.5084525],[-73.5810795,45.5084628],[-73.5810992,45.5084405],[-73.5811232,45.5084504],[-73.5810856,45.5084905],[-73.581181,45.508534],[-73.5811346,45.5085825],[-73.5814034,45.5087126],[-73.581453,45.508659],[-73.5816105,45.5087349],[-73.5817038,45.5086374],[-73.5815482,45.5085678],[-73.5815562,45.5085509],[-73.5815165,45.5085337],[-73.5814583,45.5085086],[-73.5814476,45.5085199],[-73.5813175,45.508455],[-73.5812867,45.5084842],[-73.5812612,45.508472],[-73.5812907,45.50844],[-73.5811857,45.5083865],[-73.5811458,45.5084252],[-73.5811245,45.5084146],[-73.5811449,45.5083917],[-73.5811234,45.5083811],[-73.5811405,45.5083658],[-73.5810378,45.5083164],[-73.5810234,45.5083329],[-73.5810014,45.5083227],[-73.5809791,45.5083452],[-73.580957,45.508334],[-73.5809975,45.5082959],[-73.5808884,45.5082445],[-73.5808761,45.5082535],[-73.5805057,45.508078],[-73.5805115,45.5080594],[-73.5805032,45.5080506],[-73.5804917,45.5080456],[-73.5804727,45.5080434],[-73.5804583,45.5080462],[-73.5804508,45.5080562],[-73.5804487,45.5080641],[-73.5804485,45.5080716],[-73.5804541,45.5080783],[-73.5804111,45.5081217],[-73.5803992,45.5081177],[-73.580381,45.5081173],[-73.5803667,45.5081264],[-73.5803633,45.5081376],[-73.5803655,45.5081478],[-73.5803737,45.5081605],[-73.5803917,45.5081619],[-73.580402,45.5081611],[-73.5804177,45.5081543],[-73.5808009,45.5083365]]]}},{"type":"Feature","id":"way/178691079","properties":{"building":"hospital","name":"Pavillion C"},"geometry":{"type":"Polygon","coordinates":[[[-73.5821804,45.5087203],[-73.5827491,45.5089896],[-73.5828932,45.5088395],[-73.5829395,45.5087913],[-73.582564,45.5086071],[-73.5826191,45.5085481],[-73.5827243,45.5084353],[-73.5824199,45.508296],[-73.5821481,45.5085766],[-73.582267,45.5086346],[-73.5821804,45.5087203]]]}},{"type":"Feature","id":"way/178696357","properties":{"building":"hospital","name":"Administrative Pavilion (A)","name:fr":"Pavillon administratif (A)"},"geometry":{"type":"Polygon","coordinates":[[[-73.5813108,45.5083813],[-73.5813203,45.5083707],[-73.5813723,45.5083974],[-73.5815633,45.5084874],[-73.5817051,45.5085542],[-73.5817136,45.5085474],[-73.5817593,45.5085713],[-73.5819747,45.5083347],[-73.5819364,45.5083183],[-73.5817881,45.5082485],[-73.5818359,45.5081999],[-73.5817946,45.5081813],[-73.5817985,45.5081762],[-73.5818904,45.5082196],[-73.5819465,45.5081619],[-73.5817884,45.5080858],[-73.5817989,45.5080768],[-73.5817188,45.508038],[-73.5816496,45.5081078],[-73.5817896,45.5081716],[-73.5817838,45.5081764],[-73.5817237,45.5081493],[-73.5816789,45.5081961],[-73.581518,45.5081242],[-73.5815931,45.5080518],[-73.5816426,45.5080765],[-73.5817009,45.508021],[-73.5814186,45.5078857],[-73.5814168,45.5078775],[-73.5814047,45.5078737],[-73.5813951,45.5078749],[-73.5813926,45.5078827],[-73.5813931,45.5078876],[-73.5813571,45.5079226],[-73.5813477,45.5079254],[-73.5813428,45.5079294],[-73.5813408,45.5079336],[-73.5813408,45.5079379],[-73.5813435,45.5079421],[-73.581351,45.5079461],[-73.5813591,45.507947],[-73.5812934,45.5080157],[-73.5812753,45.5080086],[-73.5812726,45.5080016],[-73.5812624,45.5079985],[-73.5812565,45.5079997],[-73.5812483,45.5080046],[-73.5812476,45.5080102],[-73.5811626,45.5080993],[-73.5811557,45.5081005],[-73.5811457,45.5081042],[-73.5811443,45.5081117],[-73.5811477,45.5081197],[-73.5811512,45.5081233],[-73.5811573,45.5081266],[-73.5811631,45.5081263],[-73.5811839,45.5081352],[-73.5811157,45.5082055],[-73.581111,45.5082022],[-73.5811101,45.5081963],[-73.5811016,45.5081938],[-73.5810915,45.5081947],[-73.5810867,45.5081958],[-73.5810848,45.5082013],[-73.5810848,45.5082069],[-73.5810493,45.508245],[-73.5810444,45.5082452],[-73.5810352,45.5082497],[-73.5810339,45.5082586],[-73.5810426,45.5082624],[-73.5810506,45.5082624],[-73.5813108,45.5083813]]]}},{"type":"Feature","id":"way/178696358","properties":{"addr:city":"Montréal","addr:housenumber":3801,"addr:postcode":"H3A 2B4","addr:province":"QC","addr:street":"Rue University","amenity":"hospital","building":"hospital","name":"Hôpital neurologique de Montréal","name:en":"Neurological Hospital of Montreal","wheelchair":"yes"},"geometry":{"type":"Polygon","coordinates":[[[-73.5816931,45.5095838],[-73.5818218,45.5094522],[-73.5817601,45.5094175],[-73.5817252,45.5094504],[-73.5815938,45.509393],[-73.5817172,45.5092661],[-73.5817727,45.5092762],[-73.5819157,45.5091336],[-73.5810681,45.5087389],[-73.5807704,45.5090293],[-73.5807918,45.5090378],[-73.5808522,45.5090744],[-73.5808334,45.5090989],[-73.5809085,45.5091252],[-73.5808254,45.5091223],[-73.5806872,45.5091299],[-73.5806664,45.5092214],[-73.5806488,45.5092988],[-73.58082,45.5092812],[-73.5808213,45.5092962],[-73.5809675,45.5093216],[-73.5809756,45.5093075],[-73.5811195,45.5093523],[-73.5811517,45.5092922],[-73.5811718,45.5092245],[-73.5811794,45.5091853],[-73.5810627,45.509144],[-73.5810587,45.5091505],[-73.5809921,45.5091305],[-73.5811137,45.5089917],[-73.5812268,45.5090403],[-73.5812451,45.5090208],[-73.5813457,45.5090321],[-73.5813015,45.5090772],[-73.5814852,45.5091712],[-73.5814637,45.5091881],[-73.5814289,45.5092182],[-73.5813994,45.5092041],[-73.5813645,45.5092408],[-73.5813457,45.5092342],[-73.5813006,45.5092743],[-73.5812398,45.5092483],[-73.581217,45.5092502],[-73.5811995,45.5092708],[-73.5812076,45.5092859],[-73.5812416,45.5093016],[-73.5811419,45.5093225],[-73.5811365,45.5093582],[-73.5812237,45.509394],[-73.5812103,45.5094034],[-73.5813135,45.5094767],[-73.5813591,45.5096195],[-73.5816931,45.5095838]]]}},{"type":"Feature","id":"way/178823557","properties":{"building":"hospital","name":"Pavillon M"},"geometry":{"type":"Polygon","coordinates":[[[-73.582263,45.5080402],[-73.5821195,45.5079701],[-73.5821628,45.5079251],[-73.5818097,45.5077586],[-73.5818298,45.5077351],[-73.5818059,45.507723],[-73.5816703,45.5076637],[-73.5815877,45.5077563],[-73.5814812,45.5077079],[-73.5815133,45.5076759],[-73.5810788,45.5074785],[-73.5810446,45.5075101],[-73.5810252,45.5074804],[-73.5809836,45.5074795],[-73.5809091,45.5075458],[-73.5809192,45.5075594],[-73.5809037,45.5075665],[-73.5809005,45.507597],[-73.5809367,45.5076073],[-73.5809689,45.5076007],[-73.5813444,45.5077746],[-73.5813275,45.5077958],[-73.5821347,45.5081713],[-73.582263,45.5080402]]]}},{"type":"Feature","id":"way/178823558","properties":{"building":"hospital","name":"Pavillon S"},"geometry":{"type":"Polygon","coordinates":[[[-73.5816105,45.5087349],[-73.5815563,45.5087906],[-73.5821356,45.5090537],[-73.5822282,45.5089485],[-73.5820592,45.5088677],[-73.5821075,45.5088169],[-73.581913,45.5087229],[-73.5820807,45.508545],[-73.5821481,45.5085766],[-73.5824199,45.508296],[-73.5825956,45.5081158],[-73.582542,45.507988],[-73.5823851,45.5079156],[-73.582263,45.5080402],[-73.5821347,45.5081713],[-73.5819747,45.5083347],[-73.5817593,45.5085713],[-73.5817038,45.5086374],[-73.5816105,45.5087349]]]}},{"type":"Feature","id":"way/178823559","properties":{"building":"hospital","name":"Pavillon H"},"geometry":{"type":"Polygon","coordinates":[[[-73.5818059,45.507723],[-73.5818696,45.5076583],[-73.5822013,45.5078141],[-73.5822992,45.5077107],[-73.5819264,45.5075312],[-73.5821168,45.507331],[-73.5819814,45.507268],[-73.5820015,45.5072455],[-73.5819331,45.5072191],[-73.5814932,45.5068874],[-73.5813705,45.5069687],[-73.5818272,45.5073122],[-73.5817413,45.5074071],[-73.5817252,45.5074005],[-73.5816931,45.5074034],[-73.5816823,45.5074165],[-73.5814999,45.50733],[-73.5814865,45.5073423],[-73.581459,45.5073268],[-73.5813846,45.5074099],[-73.5814074,45.5074203],[-73.581398,45.5074381],[-73.581626,45.5075396],[-73.5815817,45.5075472],[-73.5815603,45.5075772],[-73.5815831,45.5076252],[-73.5816703,45.5076637],[-73.5818059,45.507723]]]}},{"type":"Feature","id":"way/372921058","properties":{"addr:city":"Montréal","addr:housenumber":688,"addr:province":"Quebec","addr:street":"Rue Sherbrooke Ouest","amenity":"university","building":"yes","learning":"university","name":"Sherbrooke 688"},"geometry":{"type":"Polygon","coordinates":[[[-73.5733721,45.5045776],[-73.5733941,45.504558],[-73.5734173,45.5045715],[-73.5734533,45.504567],[-73.5734764,45.504548],[-73.5734713,45.5045246],[-73.5734687,45.5045075],[-73.5732732,45.5044173],[-73.573268,45.5044254],[-73.5731857,45.5043866],[-73.5731537,45.5044347],[-73.5733598,45.504534],[-73.5733721,45.5045776]]]}},{"type":"Feature","id":"way/553058166","properties":{"building":"hospital"},"geometry":{"type":"Polygon","coordinates":[[[-73.582521,45.5089286],[-73.5823635,45.5090784],[-73.5828362,45.5093068],[-73.5828576,45.5092824],[-73.5828576,45.509215],[-73.5828362,45.5091364],[-73.5827962,45.5090877],[-73.5827027,45.5090166],[-73.582521,45.5089286]]]}},{"type":"Feature","id":"node/1282745090","properties":{"entrance":"yes"},"geometry":{"type":"Point","coordinates":[-73.5764515,45.5059792]}},{"type":"Feature","id":"node/1574439792","properties":{"entrance":"yes"},"geometry":{"type":"Point","coordinates":[-73.5777742,45.5043206]}},{"type":"Feature","id":"node/1574439827","properties":{"entrance":"yes"},"geometry":{"type":"Point","coordinates":[-73.5780869,45.5045194]}},{"type":"Feature","id":"node/1574821531","properties":{"entrance":"yes"},"geometry":{"type":"Point","coordinates":[-73.5767907,45.5056128]}},{"type":"Feature","id":"node/1574821550","properties":{"entrance":"yes"},"geometry":{"type":"Point","coordinates":[-73.5775393,45.504126]}},{"type":"Feature","id":"node/1599126695","properties":{"entrance":"main"},"geometry":{"type":"Point","coordinates":[-73.5780257,45.5036647]}},{"type":"Feature","id":"node/2480075655","properties":{"entrance":"main","wheelchair":"yes"},"geometry":{"type":"Point","coordinates":[-73.5763003,45.5023927]}},{"type":"Feature","id":"node/2480075657","properties":{"entrance":"yes","wheelchair":"yes"},"geometry":{"type":"Point","coordinates":[-73.5761621,45.5027404]}},{"type":"Feature","id":"node/2480075658","properties":{"entrance":"yes","wheelchair":"limited"},"geometry":{"type":"Point","coordinates":[-73.5765434,45.5027069]}},{"type":"Feature","id":"node/2680789222","properties":{"access":"yes","entrance":"main","wheelchair":"no"},"geometry":{"type":"Point","coordinates":[-73.577282,45.5043766]}}]}